NORAD_CAT_ID,OBJECT_NAME,OBJECT_TYPE,EPOCH,MEAN_MOTION,ECCENTRICITY,INCLINATION,RA_OF_ASC_NODE,ARG_OF_PERICENTER,MEAN_ANOMALY,BSTAR,MEAN_MOTION_DOT,MEAN_MOTION_DDOT,TLE_LINE0,TLE_LINE1,TLE_LINE2,SEMIMAJOR_AXIS,PERIOD,APOGEE,PERIGEE,DECAYED
52878.0,STARLINK-4171,PAYLOAD,2023-01-09 02:58:30,15.08840766,0.0002763,53.2155,161.6524,44.2103,315.9109,0.0001240999999999,1.687e-05,0.0,0 STARLINK-4171,1 52878U 22062BA  23009.12396505  .00001687  00000-0  12410-3 0  9990,2 52878  53.2155 161.6524 0002763  44.2103 315.9109 15.08840766 31614,6917.8780000000015,95.438,541.654,537.832,0.0
52878.0,STARLINK-4171,PAYLOAD,2023-01-09 12:30:49,15.08843651,0.0002723999999999,53.2171,159.8666,41.1526,318.9671,0.00011902,1.606e-05,0.0,0 STARLINK-4171,1 52878U 22062BA  23009.52140253  .00001606  00000-0  11902-3 0  9997,2 52878  53.2171 159.8666 0002724  41.1526 318.9671 15.08843651 32164,6917.8690000000015,95.437,541.619,537.85,0.0
52878.0,STARLINK-4171,PAYLOAD,2023-01-10 12:21:36,15.088409400000002,0.0003456,53.2141,155.4082,49.032,311.097,4.0279e-05,3.52e-06,0.0,0 STARLINK-4171,1 52878U 22062BA  23010.51501053  .00000352  00000-0  40279-4 0  9994,2 52878  53.2141 155.4082 0003456  49.0320 311.0970 15.08840940 32318,6917.8780000000015,95.437,542.133,537.352,0.0
52878.0,STARLINK-4171,PAYLOAD,2023-01-10 18:43:09,15.0884487,0.0003673,53.2137,154.2181,51.5653,308.5669,2.2214e-05,6.5e-07,0.0,0 STARLINK-4171,1 52878U 22062BA  23010.77996843  .00000065  00000-0  22214-4 0  9997,2 52878  53.2137 154.2181 0003673  51.5653 308.5669 15.08844870 31869,6917.866,95.437,542.271,537.19,0.0
52878.0,STARLINK-4171,PAYLOAD,2023-01-11 12:12:24,15.08831196,0.0002182,53.2201,150.9461,20.4929,339.6151,-2.071e-05,-6.18e-06,0.0,0 STARLINK-4171,1 52878U 22062BA  23011.50861414 -.00000618  00000-0 -20710-4 0  9999,2 52878  53.2201 150.9461 0002182  20.4929 339.6151 15.08831196 32465,6917.906999999998,95.438,541.2819999999998,538.263,0.0
52878.0,STARLINK-4171,PAYLOAD,2023-01-11 18:33:56,15.08834491,0.0002357,53.2157,149.7538,63.9647,296.1588,6.4638e-05,7.400000000000001e-06,0.0,0 STARLINK-4171,1 52878U 22062BA  23011.77357331  .00000740  00000-0  64638-4 0  9997,2 52878  53.2157 149.7538 0002357  63.9647 296.1588 15.08834491 32012,6917.897,95.438,541.393,538.132,0.0
52878.0,STARLINK-4171,PAYLOAD,2023-01-12 15:13:57,15.08833744,0.0002498,53.216,145.8916,41.8379,318.2804,5.508800000000001e-05,5.88e-06,0.0,0 STARLINK-4171,1 52878U 22062BA  23012.63469763  .00000588  00000-0  55088-4 0  9995,2 52878  53.2160 145.8916 0002498  41.8379 318.2804 15.08833744 32631,6917.9,95.438,541.493,538.036,0.0
52878.0,STARLINK-4171,PAYLOAD,2023-01-13 15:04:44,15.08846232,0.0002552,53.2151,141.4319,49.0639,311.0573,0.00024374,3.594e-05,0.0,0 STARLINK-4171,1 52878U 22062BA  23013.62829711  .00003594  00000-0  24374-3 0  9991,2 52878  53.2151 141.4319 0002552  49.0639 311.0573 15.08846232 32292,6917.861,95.437,541.492,537.961,0.0
52878.0,STARLINK-4171,PAYLOAD,2023-01-13 18:15:30,15.08849096,0.0002561,53.2151,140.8367,50.3726,309.7492,0.00027316,4.063e-05,0.0,0 STARLINK-4171,1 52878U 22062BA  23013.76077527  .00004063  00000-0  27316-3 0  9997,2 52878  53.2151 140.8367 0002561  50.3726 309.7492 15.08849096 32802,6917.853,95.437,541.489,537.946,0.0
52878.0,STARLINK-4171,PAYLOAD,2023-01-14 06:58:36,15.08839412,0.000281,53.2148,138.4586,56.9077,303.2184,0.00014827,2.072e-05,0.0,0 STARLINK-4171,1 52878U 22062BA  23014.29070183  .00002072  00000-0  14827-3 0  9998,2 52878  53.2148 138.4586 0002810  56.9077 303.2184 15.08839412 32888,6917.882,95.438,541.691,537.803,0.0
52878.0,STARLINK-4171,PAYLOAD,2023-01-14 18:06:17,15.08851288,0.0002384999999999,53.2151,136.3767,54.1593,305.9621,0.00020804,3.025e-05,0.0,0 STARLINK-4171,1 52878U 22062BA  23014.75437370  .00003025  00000-0  20804-3 0  9995,2 52878  53.2151 136.3767 0002385  54.1593 305.9621 15.08851288 32958,6917.846,95.437,541.361,538.061,0.0
52878.0,STARLINK-4171,PAYLOAD,2023-01-15 00:27:51,15.08831152,0.0002833,53.2157,135.1853,62.4205,297.7075,-4.0688e-05,-9.36e-06,0.0,0 STARLINK-4171,1 52878U 22062BA  23015.01934615 -.00000936  00000-0 -40688-4 0  9992,2 52878  53.2157 135.1853 0002833  62.4205 297.7075 15.08831152 32990,6917.906999999999,95.438,541.732,537.813,0.0
52878.0,STARLINK-4171,PAYLOAD,2023-01-15 13:10:56,15.08841107,0.0001931,53.2156,132.80700000000002,60.4483,299.6701,0.00011238,1.501e-05,0.0,0 STARLINK-4171,1 52878U 22062BA  23015.54926051  .00001501  00000-0  11238-3 0  9990,2 52878  53.2156 132.8070 0001931  60.4483 299.6701 15.08841107 33076,6917.877,95.437,541.078,538.406,0.0
52878.0,STARLINK-4171,PAYLOAD,2023-01-15 14:46:19,15.08848172,0.0002017,53.2155,132.5102,57.3159,302.8027,3.0536e-05,1.98e-06,0.0,0 STARLINK-4171,1 52878U 22062BA  23015.61549769  .00000198  00000-0  30536-4 0  9999,2 52878  53.2155 132.5102 0002017  57.3159 302.8027 15.08848172 32592,6917.855,95.437,541.116,538.325,0.0
52878.0,STARLINK-4171,PAYLOAD,2023-01-16 14:37:06,15.08849917,0.000184,53.2174,128.0545,55.6803,304.4363,0.00029421,4.399e-05,0.0,0 STARLINK-4171,1 52878U 22062BA  23016.60909755  .00004399  00000-0  29421-3 0  9991,2 52878  53.2174 128.0545 0001840  55.6803 304.4363 15.08849917 33235,6917.85,95.437,540.988,538.442,0.0
52878.0,STARLINK-4171,PAYLOAD,2023-01-16 17:47:51,15.08860927,0.0002079,53.2158,127.4552,66.3743,293.7467,0.00032244,4.85e-05,0.0,0 STARLINK-4171,1 52878U 22062BA  23016.74157058  .00004850  00000-0  32244-3 0  9996,2 52878  53.2158 127.4552 0002079  66.3743 293.7467 15.08860927 33256,6917.816,95.436,541.12,538.243,0.0
52878.0,STARLINK-4171,PAYLOAD,2023-01-17 06:30:59,15.08816835,0.0002325,53.2153,125.0769,76.3749,283.7502,-0.00010155,-1.903e-05,0.0,0 STARLINK-4171,1 52878U 22062BA  23017.27151847 -.00001903  00000-0 -10155-3 0  9990,2 52878  53.2153 125.0769 0002325  76.3749 283.7502 15.08816835 33333,6917.951,95.439,541.425,538.2080000000001,0.0
52878.0,STARLINK-4171,PAYLOAD,2023-01-17 08:06:22,15.08814875,0.0002214,53.2154,124.7798,76.9033,283.2206,-0.0001506,-2.683e-05,0.0,0 STARLINK-4171,1 52878U 22062BA  23017.33775993 -.00002683  00000-0 -15060-3 0  9997,2 52878  53.2154 124.7798 0002214  76.9033 283.2206 15.08814875 32855,6917.956999999999,95.439,541.354,538.2909999999999,0.0
52878.0,STARLINK-4171,PAYLOAD,2023-01-17 16:03:18,15.08819889,0.0002333,53.2159,123.2929,77.5891,282.5362,-0.00013697,-2.466e-05,0.0,0 STARLINK-4171,1 52878U 22062BA  23017.66896168 -.00002466  00000-0 -13697-3 0  9994,2 52878  53.2159 123.2929 0002333  77.5891 282.5362 15.08819889 32902,6917.941999999999,95.439,541.4209999999999,538.193,0.0
52878.0,STARLINK-4171,PAYLOAD,2023-01-18 06:21:46,15.08838923,0.0002244,53.2168,120.6166,78.9551,281.1694,0.00018813,2.707e-05,0.0,0 STARLINK-4171,1 52878U 22062BA  23018.26511623  .00002707  00000-0  18813-3 0  9992,2 52878  53.2168 120.6166 0002244  78.9551 281.1694 15.08838923 33482,6917.884,95.438,541.3009999999999,538.196,0.0
52878.0,STARLINK-4171,PAYLOAD,2023-01-18 12:43:18,15.08840875,0.0002215,53.2163,119.4281,81.6762,278.4481,0.00030294,4.537e-05,0.0,0 STARLINK-4171,1 52878U 22062BA  23018.53007693  .00004537  00000-0  30294-3 0  9999,2 52878  53.2163 119.4281 0002215  81.6762 278.4481 15.08840875 33037,6917.878000000001,95.437,541.275,538.21,0.0
52878.0,STARLINK-4171,PAYLOAD,2023-01-18 14:18:40,15.08861024,0.0001602,53.2158,119.1287,92.3922,267.7253,0.00059211,9.153e-05,0.0,0 STARLINK-4171,1 52878U 22062BA  23018.59630599  .00009153  00000-0  59211-3 0  9991,2 52878  53.2158 119.1287 0001602  92.3922 267.7253 15.08861024 33532,6917.816,95.436,540.789,538.573,0.0
52878.0,STARLINK-4171,PAYLOAD,2023-01-19 06:12:33,15.08828112,0.0001726,53.2165,116.1575,94.8672,265.2517,9.3261e-05,1.196e-05,0.0,0 STARLINK-4171,1 52878U 22062BA  23019.25872060  .00001196  00000-0  93261-4 0  9999,2 52878  53.2165 116.1575 0001726  94.8672 265.2517 15.08828112 33631,6917.917,95.438,540.976,538.5880000000001,0.0
52878.0,STARLINK-4171,PAYLOAD,2023-01-19 09:23:19,15.08832065,0.0001809,53.2152,115.5621,96.5196,263.6002,0.00014947,2.091e-05,0.0,0 STARLINK-4171,1 52878U 22062BA  23019.39119945  .00002091  00000-0  14947-3 0  9998,2 52878  53.2152 115.5621 0001809  96.5196 263.6002 15.08832065 33165,6917.905,95.438,541.021,538.518,0.0
52878.0,STARLINK-4171,PAYLOAD,2023-01-19 12:34:05,15.08846187,0.0001605,53.216,114.966,94.7916,265.3259,0.00032693,4.92e-05,0.0,0 STARLINK-4171,1 52878U 22062BA  23019.52367446  .00004920  00000-0  32693-3 0  9995,2 52878  53.2160 114.9660 0001605  94.7916 265.3259 15.08846187 33673,6917.861,95.437,540.837,538.616,0.0
52878.0,STARLINK-4171,PAYLOAD,2023-01-20 12:24:52,15.08849376,0.0001757,53.2165,110.5044,119.5789,240.5378,0.00025511,3.775e-05,0.0,0 STARLINK-4171,1 52878U 22062BA  23020.51726963  .00003775  00000-0  25511-3 0  9997,2 52878  53.2165 110.5044 0001757 119.5789 240.5378 15.08849376 33331,6917.852,95.437,540.932,538.501,0.0
52878.0,STARLINK-4171,PAYLOAD,2023-01-20 14:00:15,15.08855723,0.0001895,53.2152,110.2076,109.685,250.4346,0.00041561,6.335e-05,0.0,0 STARLINK-4171,1 52878U 22062BA  23020.58350812  .00006335  00000-0  41561-3 0  9998,2 52878  53.2152 110.2076 0001895 109.6850 250.4346 15.08855723 33834,6917.831999999999,95.437,541.008,538.386,0.0
52878.0,STARLINK-4171,PAYLOAD,2023-01-21 04:18:43,15.08838289,0.0001499,53.2163,107.5337,104.8221,255.2937,6.837899999999999e-05,8e-06,0.0,0 STARLINK-4171,1 52878U 22062BA  23021.17967389  .00000800  00000-0  68379-4 0  9995,2 52878  53.2163 107.5337 0001499 104.8221 255.2937 15.08838289 33921,6917.886,95.438,540.788,538.714,0.0
52878.0,STARLINK-4171,PAYLOAD,2023-01-21 12:15:39,15.08850436,0.0001347,53.2166,106.0463,102.4792,257.635,0.00032887,4.951e-05,0.0,0 STARLINK-4171,1 52878U 22062BA  23021.51086978  .00004951  00000-0  32887-3 0  9994,2 52878  53.2166 106.0463 0001347 102.4792 257.6350 15.08850436 33975,6917.848000000001,95.437,540.645,538.7819999999999,0.0
